IRIDIUM 126             
1 42809U 17039G   24264.39466402  .00000216  00000+0  70110-4 0  9996
2 42809  86.3912 258.8789 0002135  89.2314 270.9127 14.34218174378965
IRIDIUM 124             
1 42810U 17039H   24264.53654616  .00001017  00000+0  29633-3 0  9993
2 42810  86.4558 195.6056 0002353  93.3394 266.8076 14.43288611383578
IRIDIUM 128             
1 42811U 17039J   24264.31562905  .00000455  00000+0  15530-3 0  9995
2 42811  86.3918 290.4637 0002153  96.1126 264.0315 14.34217518378982
IRIDIUM 121             
1 42812U 17039K   24264.41369199  .00000345  00000+0  11623-3 0  9994
2 42812  86.3911 258.8940 0002251  89.7433 270.4020 14.34218751378848
IRIDIUM 133             
1 42955U 17061A   24264.48688742  .00000474  00000+0  16222-3 0  9995
2 42955  86.3922 290.4942 0002295  90.4891 269.6567 14.34218573363805
IRIDIUM 100             
1 42956U 17061B   24264.06193148  .00000470  00000+0  16080-3 0  9999
2 42956  86.3919 290.6054 0002152  95.2258 264.9184 14.34218862363747
IRIDIUM 122             
1 42957U 17061C   24264.51859636  .00000322  00000+0  10775-3 0  9992
2 42957  86.3918 290.4128 0002024  91.3754 268.7674 14.34218238363814
IRIDIUM 129             
1 42958U 17061D   24264.47419674  .00000230  00000+0  75234-4 0  9992
2 42958  86.3921 290.4916 0002185  85.4514 274.6931 14.34218694363829
